NJUST-1                 
1 42722U 98067MB  17345.94183188  .00013861  00000-0  16908-3 0  9995
2 42722  51.6377 227.5171 0005601 237.0661 122.9794 15.60766661 31282
